{
  "type": "FeatureCollection",
  "name": "poligonos_marinos_artificiales_cancun",
  "metadata": {
    "descripcion": "Franjas marinas analíticas aproximadas trazadas desde líneas de costa simplificadas. No representan límites oficiales de la CONANP.",
    "crs": "EPSG:4326",
    "fecha_creacion": "2026-09-14",
    "distancias_m": [
      500,
      1000,
      2000
    ]
  },
  "features": [
    {
      "type": "Feature",
      "properties": {
        "id": "isla_mujeres_occidental_0_500",
        "sector_id": "isla_mujeres_occidental",
        "sector": "Costa occidental de Isla Mujeres",
        "zona": "Franja costera",
        "distancia_min_m": 0,
        "distancia_max_m": 500,
        "nivel": 1,
        "total_faltas": 0,
        "es_artificial": true
      },
      "geometry": {
        "type": "Polygon",
        "coordinates": [
          [
            [
              -86.7337,
              21.1953
            ],
            [
              -86.739,
              21.2048
            ],
            [
              -86.7428,
              21.217
            ],
            [
              -86.7457,
              21.23
            ],
            [
              -86.747,
              21.244
            ],
            [
              -86.7462,
              21.2585
            ],
            [
              -86.7434,
              21.273
            ],
            [
              -86.748141,
              21.273807
            ],
            [
              -86.750987,
              21.259021
            ],
            [
              -86.751818,
              21.24392
            ],
            [
              -86.750467,
              21.229339
            ],
            [
              -86.747474,
              21.215901
            ],
            [
              -86.743469,
              21.203108
            ],
            [
              -86.737969,
              21.193202
            ],
            [
              -86.7337,
              21.1953
            ]
          ]
        ]
      }
    },
    {
      "type": "Feature",
      "properties": {
        "id": "isla_mujeres_occidental_500_1000",
        "sector_id": "isla_mujeres_occidental",
        "sector": "Costa occidental de Isla Mujeres",
        "zona": "Franja intermedia",
        "distancia_min_m": 500,
        "distancia_max_m": 1000,
        "nivel": 2,
        "total_faltas": 0,
        "es_artificial": true
      },
      "geometry": {
        "type": "Polygon",
        "coordinates": [
          [
            [
              -86.737969,
              21.193202
            ],
            [
              -86.743469,
              21.203108
            ],
            [
              -86.747474,
              21.215901
            ],
            [
              -86.750467,
              21.229339
            ],
            [
              -86.751818,
              21.24392
            ],
            [
              -86.750987,
              21.259021
            ],
            [
              -86.748141,
              21.273807
            ],
            [
              -86.752883,
              21.274614
            ],
            [
              -86.755773,
              21.259543
            ],
            [
              -86.756636,
              21.243841
            ],
            [
              -86.755234,
              21.228678
            ],
            [
              -86.752148,
              21.214802
            ],
            [
              -86.747937,
              21.201416
            ],
            [
              -86.742237,
              21.191103
            ],
            [
              -86.737969,
              21.193202
            ]
          ]
        ]
      }
    },
    {
      "type": "Feature",
      "properties": {
        "id": "isla_mujeres_occidental_1000_2000",
        "sector_id": "isla_mujeres_occidental",
        "sector": "Costa occidental de Isla Mujeres",
        "zona": "Franja exterior",
        "distancia_min_m": 1000,
        "distancia_max_m": 2000,
        "nivel": 3,
        "total_faltas": 0,
        "es_artificial": true
      },
      "geometry": {
        "type": "Polygon",
        "coordinates": [
          [
            [
              -86.742237,
              21.191103
            ],
            [
              -86.747937,
              21.201416
            ],
            [
              -86.752148,
              21.214802
            ],
            [
              -86.755234,
              21.228678
            ],
            [
              -86.756636,
              21.243841
            ],
            [
              -86.755773,
              21.259543
            ],
            [
              -86.752883,
              21.274614
            ],
            [
              -86.762365,
              21.276227
            ],
            [
              -86.765346,
              21.260586
            ],
            [
              -86.766272,
              21.243682
            ],
            [
              -86.764768,
              21.227356
            ],
            [
              -86.761497,
              21.212604
            ],
            [
              -86.756875,
              21.198031
            ],
            [
              -86.750775,
              21.186906
            ],
            [
              -86.742237,
              21.191103
            ]
          ]
        ]
      }
    },
    {
      "type": "Feature",
      "properties": {
        "id": "punta_cancun_0_500",
        "sector_id": "punta_cancun",
        "sector": "Punta Cancún",
        "zona": "Franja costera",
        "distancia_min_m": 0,
        "distancia_max_m": 500,
        "nivel": 1,
        "total_faltas": 0,
        "es_artificial": true
      },
      "geometry": {
        "type": "Polygon",
        "coordinates": [
          [
            [
              -86.7605,
              21.119
            ],
            [
              -86.7562,
              21.125
            ],
            [
              -86.7512,
              21.131
            ],
            [
              -86.7461,
              21.136
            ],
            [
              -86.7416,
              21.1384
            ],
            [
              -86.7378,
              21.1392
            ],
            [
              -86.736747,
              21.134786
            ],
            [
              -86.739866,
              21.13418
            ],
            [
              -86.743142,
              21.132431
            ],
            [
              -86.747561,
              21.128038
            ],
            [
              -86.752304,
              21.122341
            ],
            [
              -86.756505,
              21.116474
            ],
            [
              -86.7605,
              21.119
            ]
          ]
        ]
      }
    },
    {
      "type": "Feature",
      "properties": {
        "id": "punta_cancun_500_1000",
        "sector_id": "punta_cancun",
        "sector": "Punta Cancún",
        "zona": "Franja intermedia",
        "distancia_min_m": 500,
        "distancia_max_m": 1000,
        "nivel": 2,
        "total_faltas": 0,
        "es_artificial": true
      },
      "geometry": {
        "type": "Polygon",
        "coordinates": [
          [
            [
              -86.756505,
              21.116474
            ],
            [
              -86.752304,
              21.122341
            ],
            [
              -86.747561,
              21.128038
            ],
            [
              -86.743142,
              21.132431
            ],
            [
              -86.739866,
              21.13418
            ],
            [
              -86.736747,
              21.134786
            ],
            [
              -86.735694,
              21.130372
            ],
            [
              -86.738131,
              21.129961
            ],
            [
              -86.740183,
              21.128862
            ],
            [
              -86.743922,
              21.125075
            ],
            [
              -86.748409,
              21.119683
            ],
            [
              -86.752511,
              21.113948
            ],
            [
              -86.756505,
              21.116474
            ]
          ]
        ]
      }
    },
    {
      "type": "Feature",
      "properties": {
        "id": "punta_cancun_1000_2000",
        "sector_id": "punta_cancun",
        "sector": "Punta Cancún",
        "zona": "Franja exterior",
        "distancia_min_m": 1000,
        "distancia_max_m": 2000,
        "nivel": 3,
        "total_faltas": 0,
        "es_artificial": true
      },
      "geometry": {
        "type": "Polygon",
        "coordinates": [
          [
            [
              -86.752511,
              21.113948
            ],
            [
              -86.748409,
              21.119683
            ],
            [
              -86.743922,
              21.125075
            ],
            [
              -86.740183,
              21.128862
            ],
            [
              -86.738131,
              21.129961
            ],
            [
              -86.735694,
              21.130372
            ],
            [
              -86.733588,
              21.121545
            ],
            [
              -86.734663,
              21.121521
            ],
            [
              -86.734266,
              21.121724
            ],
            [
              -86.736644,
              21.11915
            ],
            [
              -86.740617,
              21.114365
            ],
            [
              -86.744522,
              21.108896
            ],
            [
              -86.752511,
              21.113948
            ]
          ]
        ]
      }
    },
    {
      "type": "Feature",
      "properties": {
        "id": "punta_nizuc_0_500",
        "sector_id": "punta_nizuc",
        "sector": "Punta Nizuc",
        "zona": "Franja costera",
        "distancia_min_m": 0,
        "distancia_max_m": 500,
        "nivel": 1,
        "total_faltas": 0,
        "es_artificial": true
      },
      "geometry": {
        "type": "Polygon",
        "coordinates": [
          [
            [
              -86.7578,
              21.034
            ],
            [
              -86.7592,
              21.025
            ],
            [
              -86.762,
              21.0165
            ],
            [
              -86.7668,
              21.0082
            ],
            [
              -86.773,
              21.0015
            ],
            [
              -86.781,
              20.997
            ],
            [
              -86.778529,
              20.993119
            ],
            [
              -86.769911,
              20.998032
            ],
            [
              -86.762848,
              21.00562
            ],
            [
              -86.757567,
              21.014742
            ],
            [
              -86.754507,
              21.024001
            ],
            [
              -86.753039,
              21.033346
            ],
            [
              -86.7578,
              21.034
            ]
          ]
        ]
      }
    },
    {
      "type": "Feature",
      "properties": {
        "id": "punta_nizuc_500_1000",
        "sector_id": "punta_nizuc",
        "sector": "Punta Nizuc",
        "zona": "Franja intermedia",
        "distancia_min_m": 500,
        "distancia_max_m": 1000,
        "nivel": 2,
        "total_faltas": 0,
        "es_artificial": true
      },
      "geometry": {
        "type": "Polygon",
        "coordinates": [
          [
            [
              -86.753039,
              21.033346
            ],
            [
              -86.754507,
              21.024001
            ],
            [
              -86.757567,
              21.014742
            ],
            [
              -86.762848,
              21.00562
            ],
            [
              -86.769911,
              20.998032
            ],
            [
              -86.778529,
              20.993119
            ],
            [
              -86.776059,
              20.989237
            ],
            [
              -86.766823,
              20.994564
            ],
            [
              -86.758896,
              21.00304
            ],
            [
              -86.753133,
              21.012984
            ],
            [
              -86.749815,
              21.023001
            ],
            [
              -86.748278,
              21.032691
            ],
            [
              -86.753039,
              21.033346
            ]
          ]
        ]
      }
    },
    {
      "type": "Feature",
      "properties": {
        "id": "punta_nizuc_1000_2000",
        "sector_id": "punta_nizuc",
        "sector": "Punta Nizuc",
        "zona": "Franja exterior",
        "distancia_min_m": 1000,
        "distancia_max_m": 2000,
        "nivel": 3,
        "total_faltas": 0,
        "es_artificial": true
      },
      "geometry": {
        "type": "Polygon",
        "coordinates": [
          [
            [
              -86.748278,
              21.032691
            ],
            [
              -86.749815,
              21.023001
            ],
            [
              -86.753133,
              21.012984
            ],
            [
              -86.758896,
              21.00304
            ],
            [
              -86.766823,
              20.994564
            ],
            [
              -86.776059,
              20.989237
            ],
            [
              -86.771118,
              20.981474
            ],
            [
              -86.760645,
              20.987627
            ],
            [
              -86.750991,
              20.99788
            ],
            [
              -86.744267,
              21.009469
            ],
            [
              -86.740429,
              21.021003
            ],
            [
              -86.738756,
              21.031382
            ],
            [
              -86.748278,
              21.032691
            ]
          ]
        ]
      }
    }
  ]
}
